[{"OBJECT_NAME":"TIANMU-1 10","OBJECT_ID":"2023-101D","EPOCH":"2026-03-09T23:06:46.939392","MEAN_MOTION":15.2921896,"ECCENTRICITY":0.00069292,"INCLINATION":97.2749,"RA_OF_ASC_NODE":122.1027,"ARG_OF_PERICENTER":133.6162,"MEAN_ANOMALY":226.5654,"EPHEMERIS_TYPE":0,"CLASSIFICATION_TYPE":"U","NORAD_CAT_ID":57402,"ELEMENT_SET_NO":999,"REV_AT_EPOCH":14647,"BSTAR":0.00032238884,"MEAN_MOTION_DOT":9.075e-5,"MEAN_MOTION_DDOT":0},{"OBJECT_NAME":"STARLINK-33849","OBJECT_ID":"2025-083W","EPOCH":"2026-03-09T05:23:01.654080","MEAN_MOTION":15.27583965,"ECCENTRICITY":0.00016737,"INCLINATION":43.0062,"RA_OF_ASC_NODE":8.0085,"ARG_OF_PERICENTER":267.735,"MEAN_ANOMALY":92.331,"EPHEMERIS_TYPE":0,"CLASSIFICATION_TYPE":"U","NORAD_CAT_ID":63654,"ELEMENT_SET_NO":999,"REV_AT_EPOCH":4999,"BSTAR":0.00074683478,"MEAN_MOTION_DOT":0.00020348,"MEAN_MOTION_DDOT":0}]
